{"type":"FeatureCollection","features":[{"type":"Feature","properties":{"id":"hoang-sa","name":"Quần đảo Hoàng Sa","parentId":"da-nang","parentName":"Đà Nẵng","displayType":"schematic"},"geometry":{"type":"MultiPolygon","coordinates":[[[[112.02,16.85],[112.14,16.94],[112.308,16.8905],[112.252,16.7645],[112.02,16.85]]],[[[112.43,16.65],[112.52,16.72],[112.646,16.6815],[112.604,16.5835],[112.43,16.65]]],[[[112.79,16.48],[112.8875,16.56],[113.024,16.516],[112.9785,16.404],[112.79,16.48]]],[[[112.52,16.18],[112.595,16.24],[112.7,16.207],[112.665,16.123],[112.52,16.18]]],[[[112.93,16.92],[113.0125,16.99],[113.128,16.9515],[113.0895,16.8535],[112.93,16.92]]]]}},{"type":"Feature","properties":{"id":"truong-sa","name":"Quần đảo Trường Sa","parentId":"khanh-hoa","parentName":"Khánh Hòa","displayType":"schematic"},"geometry":{"type":"MultiPolygon","coordinates":[[[[114.22,11.35],[114.3175,11.42],[114.454,11.3815],[114.4085,11.2835],[114.22,11.35]]],[[[114.63,10.84],[114.7125,10.9],[114.828,10.867],[114.7895,10.783],[114.63,10.84]]],[[[115.06,10.42],[115.15,10.49],[115.276,10.4515],[115.234,10.3535],[115.06,10.42]]],[[[114.38,9.76],[114.455,9.82],[114.56,9.787],[114.525,9.703],[114.38,9.76]]],[[[115.43,9.18],[115.52,9.25],[115.646,9.2115],[115.604,9.1135],[115.43,9.18]]],[[[114.87,8.72],[114.9525,8.78],[115.068,8.747],[115.0295,8.663],[114.87,8.72]]],[[[113.83,10.18],[113.8975,10.23],[113.992,10.2025],[113.9605,10.1325],[113.83,10.18]]]]}}]}
